NOAA 20 (JPSS-1)
1 43013U 17073A   26192.88298842  .00000018  00000+0  29660-4 0  9993
2 43013  98.7774 132.1267 0001264 127.5722 232.5569 14.19516105447972
